OPTICUBE 04             
1 41851U 16067D   18218.80089654  .00000585  00000-0  56505-4 0  9992
2 41851  97.9240 307.5697 0008895   8.2364 351.9002 14.96690965 94662
AEROCUBE 8D             
1 41852U 16067E   18218.70974513  .00000134  00000-0  17097-4 0  9992
2 41852  97.9244 307.3162 0009539   5.0426 355.0889 14.96521203 94635
AEROCUBE 8C             
1 41853U 16067F   18219.19317443  .00000638  00000-0  61482-4 0  9996
2 41853  97.9249 307.7651 0009865   6.2375 353.8967 14.96487952 94709
PROMETHEUS 2-1          
1 41854U 16067G   18218.79465987  .00000797  00000-0  75290-4 0  9997
2 41854  97.9256 307.3832 0010175   7.1553 352.9812 14.96607139 94642
PROMETHEUS 2-3          
1 41855U 16067H   18219.19851162  .00000797  00000-0  75281-4 0  9997
2 41855  97.9259 307.7979 0010374   6.3515 353.7835 14.96606676 94708
ITF-2                   
1 41932U 98067KU  18218.77744198  .00029267  00000-0  16014-3 0  9997
2 41932  51.6310  79.4839 0002840  58.1306 301.9971 15.79585579 88753
WASEDA-SAT3             
1 41933U 98067KV  18218.80187994  .00077415  00000-0  25389-3 0  9990
2 41933  51.6322  68.9408 0000397  66.7219 293.3828 15.89865351 88895
AOBA-VELOX 3            
1 41935U 98067KX  18219.07839006  .00059071  00000-0  24187-3 0  9993
2 41935  51.6344  71.6702 0001563  67.6634 292.4535 15.85470484 88986
INS-1B                  
1 41954U 17008G   18218.77730991  .00000950  00000-0  43219-4 0  9999
2 41954  97.4425 282.3114 0009797 166.0176 194.1334 15.23127335 81709
BGUSAT                  
1 41999U 17008BD  18218.76224368  .00001505  00000-0  63586-4 0  9999
2 41999  97.4473 283.5092 0008358 181.3724 178.7492 15.24779148 81136
DIDO-2                  
1 42000U 17008BE  18218.84466706  .00000709  00000-0  32884-4 0  9998
2 42000  97.4442 282.8348 0008460 183.3702 176.7479 15.23287740 81116
PEASSS                  
1 42015U 17008BV  18218.66453702  .00000858  00000-0  38234-4 0  9996
2 42015  97.4440 283.1738 0006182 187.3758 172.7390 15.24115523 81603
AL-FARABI 1             
1 42016U 17008BW  18218.83992160  .00001091  00000-0  47233-4 0  9991
2 42016  97.4449 283.5837 0006112 186.3619 173.7542 15.24556676 81760
NAYIF-1 (EO-88)         
1 42017U 17008BX  18219.16152986  .00001074  00000-0  46489-4 0  9996
2 42017  97.4446 283.9105 0006103 185.5259 174.5912 15.24582067 81832
HAVELSAT                
1 42700U 98067LH  18219.05121457  .00025157  00000-0  17833-3 0  9994
2 42700  51.6351  94.1409 0004210  93.3995 266.7486 15.73778073 70024
CXBN-2                  
1 42704U 98067LM  18219.02343614  .00025649  00000-0  18527-3 0  9993
2 42704  51.6362  95.4790 0001556  55.6744 304.4401 15.73330475 69924
ICECUBE                 
1 42705U 98067LN  18219.07757805  .00085320  00000-0  32998-3 0  9990
2 42705  51.6452  83.1532 0000628  68.2145 291.8926 15.86506074 70159
PHOENIX                 
1 42706U 98067LP  18219.02385577  .00016989  00000-0  13696-3 0  9998
2 42706  51.6353  96.9836 0001376  64.4911 295.6229 15.71023255 69895
X-CUBESAT               
1 42707U 98067LQ  18219.13728185  .00027979  00000-0  19111-3 0  9996
2 42707  51.6308  93.1266 0001232  76.5597 283.5540 15.74584115 69945
QBEE50-LTU-OC           
1 42708U 98067LR  18219.11528544  .00026904  00000-0  19240-3 0  9992
2 42708  51.6360  94.5714 0001441  75.6009 284.5150 15.73536515 69888
ALTAIR PATHFINDER       
1 42711U 98067LS  18219.21175965  .00009502  00000-0  97974-4 0  9998
2 42711  51.6360 105.0228 0003568  27.7884 332.3302 15.65583440 69466
SHARC                   
1 42712U 98067LT  18219.07780171  .00018333  00000-0  17880-3 0  9993
2 42712  51.6373 107.1932 0002431  49.2650 310.8557 15.66275808 69666
ZA-AEROSAT              
1 42713U 98067LU  18219.03339013  .00016591  00000-0  14199-3 0  9999
2 42713  51.6348 100.0373 0001897  32.4892 327.6222 15.69593457 69512
LINK                    
1 42714U 98067LV  18219.10927645  .00100961  00000-0  35592-3 0  9997
2 42714  51.6222  82.2003 0000949 228.1408 131.9516 15.88323138 69867
CSUNSAT 1               
1 42715U 98067LW  18219.28395742  .00018086  00000-0  14904-3 0  9994
2 42715  51.6352  97.9815 0003066  24.2372 335.8770 15.70438116 69562
SPACECUBE               
1 42717U 98067LY  18219.08198357  .00026779  00000-0  19287-3 0  9994
2 42717  51.6322  95.0592 0003001  93.9923 266.1419 15.73369927 68950
HOOPOE                  
1 42718U 98067LZ  18219.20376857  .00035506  00000-0  21703-3 0  9996
2 42718  51.6294  90.6038 0002631  90.2384 269.8918 15.76999791 69028
CHALLENGER              
1 42721U 98067MA  18219.05342445  .00787864  37427-3  64530-3 0  9991
2 42721  51.6188  72.6614 0009497 267.2343  92.7585 16.13377862 68946
NJUST-1                 
1 42722U 98067MB  18219.12652218  .00014847  00000-0  13304-3 0  9993
2 42722  51.6354 101.4388 0005476  71.2887 288.8704 15.68560247 68570
UNSW-ECO                
1 42723U 98067MC  18219.04774914  .00040138  00000-0  23250-3 0  9996
2 42723  51.6384  91.1250 0004053  86.5614 273.5850 15.78145889 68681
LILACSAT-1              
1 42725U 98067ME  18219.20597307  .00019532  00000-0  15285-3 0  9998
2 42725  51.6355  97.4516 0004369  76.9334 283.2151 15.71615370 68533
NSIGHT-1                
1 42726U 98067MF  18219.17944868  .00004955  00000-0  61047-4 0  9994
2 42726  51.6388 110.1331 0005730  69.0893 291.0714 15.62234027 68374
SNUSAT-1                
1 42727U 98067MG  18218.96432251  .00020244  00000-0  15845-3 0  9992
2 42727  51.6335  98.7738 0005323  40.2950 319.8442 15.71579449 68469
I-INSPIRE II            
1 42731U 98067ML  18219.14651153  .00040532  00000-0  22657-3 0  9993
2 42731  51.6359  89.4403 0002935  32.5780 327.5402 15.78940370 68494
POLYITAN-2-SAU          
1 42732U 98067MM  18219.02280077  .00025861  00000-0  17900-3 0  9997
2 42732  51.6352  94.6660 0004336  32.2012 327.9251 15.74316809 68411
SNUSAT-1B               
1 42733U 98067MN  18219.29144889  .00020815  00000-0  15669-3 0  9991
2 42733  51.6347  95.7384 0004602  32.7302 327.3980 15.72490324 68421
EXALTA-1                
1 42734U 98067MP  18219.10027784  .00047210  00000-0  25038-3 0  9995
2 42734  51.6279  89.0555 0004226  66.4428 293.7017 15.80027522 68441
BEEAGLESAT              
1 42736U 98067MR  18219.27550273  .00018903  00000-0  15357-3 0  9999
2 42736  51.6342  97.8859 0005427  70.9299 289.2287 15.70736675 68453
UCLSAT                  
1 42765U 17036A   18218.83566944  .00000830  00000-0  39423-4 0  9992
2 42765  97.3970 277.8608 0010113 257.0022 103.0085 15.21962412 62416
LITUANICASAT-2          
1 42768U 17036D   18218.71037628  .00001399  00000-0  65046-4 0  9995
2 42768  97.3988 277.3155 0014085 246.5242 113.4514 15.21549106 62243
AALTO-1                 
1 42775U 17036L   18218.76278320  .00000539  00000-0  27526-4 0  9990
2 42775  97.3963 277.1880 0012672 244.4932 115.4993 15.20823847 62182
URSA MAIOR              
1 42776U 17036M   18219.14138403  .00000604  00000-0  30410-4 0  9990
2 42776  97.3969 277.6216 0012520 243.2005 116.7950 15.20910124 62246
COMPASS 2               
1 42777U 17036N   18218.70743968  .00001114  00000-0  51969-4 0  9999
2 42777  97.3993 277.6677 0011324 247.8354 112.1681 15.21877407 62195
DIAMOND RED             
1 42783U 17036U   18218.65064008  .00000696  00000-0  33952-4 0  9997
2 42783  97.3971 277.5056 0010717 257.9548 102.0487 15.21553799 62186
PEGASUS                 
1 42784U 17036V   18218.74800434  .00000801  00000-0  38333-4 0  9995
2 42784  97.3973 277.6879 0010645 257.5953 102.4091 15.21767351 62208
DIAMOND GREEN           
1 42785U 17036W   18218.64944169  .00000698  00000-0  34037-4 0  9990
2 42785  97.3974 277.5192 0010618 258.7475 101.2568 15.21556525 62170
DIAMOND BLUE            
1 42786U 17036X   18218.58284328  .00000708  00000-0  34465-4 0  9995
2 42786  97.3973 277.4535 0010448 259.0857 100.9203 15.21555674 62164
NUDTSAT                 
1 42787U 17036Y   18218.90931330  .00001198  00000-0  54837-4 0  9993
2 42787  97.3982 278.0984 0010188 255.9544 104.0560 15.22389447 62085
SUCHAI                  
1 42788U 17036Z   18219.09049124  .00000950  00000-0  44535-4 0  9995
2 42788  97.3974 278.1451 0010257 255.7696 104.2401 15.22054336 62330
SKCUBE                  
1 42789U 17036AA  18218.82832534  .00000885  00000-0  41765-4 0  9990
2 42789  97.3972 277.8773 0010091 256.8550 103.1561 15.22008660 62210
VZLUSAT-1               
1 42790U 17036AB  18218.76652086  .00001161  00000-0  53245-4 0  9991
2 42790  97.3978 277.9651 0009723 256.9081 103.1071 15.22406432 62219
ROBUSTA-1B              
1 42792U 17036AD  18218.72643662  .00000958  00000-0  44759-4 0  9992
2 42792  97.3971 277.8497 0009660 258.2705 101.7448 15.22156831 62216
CICERO 6                
1 42793U 17036AE  18218.72658316  .00000707  00000-0  34005-4 0  9990
2 42793  97.3963 277.8277 0008823 259.8528 100.1713 15.21964965 62283
D-SAT                   
1 42794U 17036AF  18218.71642233  .00000259  00000-0  27816-4 0  9995
2 42794  97.5872 271.4537 0128498 113.8793 247.5952 14.90902350 61250
TOKI                    
1 42820U 98067MU  18218.67515465  .00017775  00000-0  15071-3 0  9999
2 42820  51.6343 103.6390 0002155  19.5848 340.5232 15.69762382 61780
MAZAALAI (NUMSAT-1)     
1 42822U 98067MW  18218.90963221  .00017278  00000-0  14861-3 0  9998
2 42822  51.6347 102.9628 0002247  24.5123 335.5980 15.69435706 61811
BRAC ONNESHA            
1 42823U 98067MX  18218.71108778  .00017565  00000-0  15018-3 0  9990
2 42823  51.6355 103.9077 0004605  33.9590 326.1702 15.69561352 61761
NIGERIAEDUSAT-1         
1 42824U 98067MY  18218.67888816  .00017279  00000-0  14935-3 0  9993
2 42824  51.6357 104.4620 0004568  34.2647 325.8644 15.69310469 61772
CORVUS BC2              
1 42846U 17042X   18219.18218170 -.00000040  00000-0  13661-5 0  9994
2 42846  97.5922 120.2031 0010540  34.5123 325.6778 14.91839431 57976
